CSS (TIANHE)            
1 48274U 21035A   24044.60669787  .00049461  00000+0  51397-3 0  9990
2 48274  41.4685 124.3211 0007208   4.4642 355.6261 15.63743954159590
